CCSDS_OMM_VERS = 2.0
CREATION_DATE  = 
ORIGINATOR     = 

OBJECT_NAME    = UNKNOWN
OBJECT_ID      = 
CENTER_NAME    = EARTH
REF_FRAME      = TEME
TIME_SYSTEM    = UTC
MEAN_ELEMENT_THEORY = SGP/SGP4

EPOCH          = 2025-10-29T11:33:36.031392
MEAN_MOTION    = 13.04403339
ECCENTRICITY   = .00214387
INCLINATION    = 90.2375
RA_OF_ASC_NODE = 13.3618
ARG_OF_PERICENTER = 75.3196
MEAN_ANOMALY   = 285.0304

EPHEMERIS_TYPE = 0
CLASSIFICATION_TYPE = U
NORAD_CAT_ID   = 270156
ELEMENT_SET_NO = 999
REV_AT_EPOCH   = 28050
BSTAR          = .35085018E-2
MEAN_MOTION_DOT = .1133E-4
MEAN_MOTION_DDOT = 0

CCSDS_OMM_VERS = 2.0
CREATION_DATE  = 
ORIGINATOR     = 

OBJECT_NAME    = UNKNOWN
OBJECT_ID      = 
CENTER_NAME    = EARTH
REF_FRAME      = TEME
TIME_SYSTEM    = UTC
MEAN_ELEMENT_THEORY = SGP/SGP4

EPOCH          = 2025-10-20T19:27:03.348288
MEAN_MOTION    = 12.75863677
ECCENTRICITY   = .09843572
INCLINATION    = 65.8276
RA_OF_ASC_NODE = 322.0202
ARG_OF_PERICENTER = 252.7893
MEAN_ANOMALY   = 96.3188

EPHEMERIS_TYPE = 0
CLASSIFICATION_TYPE = U
NORAD_CAT_ID   = 270157
ELEMENT_SET_NO = 999
REV_AT_EPOCH   = 27382
BSTAR          = .80985499E-3
MEAN_MOTION_DOT = .1358E-4
MEAN_MOTION_DDOT = 0

CCSDS_OMM_VERS = 2.0
CREATION_DATE  = 
ORIGINATOR     = 

OBJECT_NAME    = UNKNOWN
OBJECT_ID      = 
CENTER_NAME    = EARTH
REF_FRAME      = TEME
TIME_SYSTEM    = UTC
MEAN_ELEMENT_THEORY = SGP/SGP4

EPOCH          = 2025-10-30T03:48:45.616320
MEAN_MOTION    = 12.21551311
ECCENTRICITY   = .01348722
INCLINATION    = 74.0023
RA_OF_ASC_NODE = 256.8904
ARG_OF_PERICENTER = 24.3239
MEAN_ANOMALY   = 336.4083

EPHEMERIS_TYPE = 0
CLASSIFICATION_TYPE = U
NORAD_CAT_ID   = 270158
ELEMENT_SET_NO = 999
REV_AT_EPOCH   = 26435
BSTAR          = .91992378E-3
MEAN_MOTION_DOT = .85E-6
MEAN_MOTION_DDOT = 0

CCSDS_OMM_VERS = 2.0
CREATION_DATE  = 
ORIGINATOR     = 

OBJECT_NAME    = UNKNOWN
OBJECT_ID      = 
CENTER_NAME    = EARTH
REF_FRAME      = TEME
TIME_SYSTEM    = UTC
MEAN_ELEMENT_THEORY = SGP/SGP4

EPOCH          = 2025-10-22T09:03:43.135776
MEAN_MOTION    = 12.81629050
ECCENTRICITY   = .02905067
INCLINATION    = 62.9619
RA_OF_ASC_NODE = 336.0813
ARG_OF_PERICENTER = 212.5863
MEAN_ANOMALY   = 145.6905

EPHEMERIS_TYPE = 0
CLASSIFICATION_TYPE = U
NORAD_CAT_ID   = 270159
ELEMENT_SET_NO = 999
REV_AT_EPOCH   = 27622
BSTAR          = .14639419E-2
MEAN_MOTION_DOT = .33E-5
MEAN_MOTION_DDOT = 0

CCSDS_OMM_VERS = 2.0
CREATION_DATE  = 
ORIGINATOR     = 

OBJECT_NAME    = UNKNOWN
OBJECT_ID      = 
CENTER_NAME    = EARTH
REF_FRAME      = TEME
TIME_SYSTEM    = UTC
MEAN_ELEMENT_THEORY = SGP/SGP4

EPOCH          = 2025-11-01T13:14:22.396704
MEAN_MOTION    = 12.15594724
ECCENTRICITY   = .08631073
INCLINATION    = 83.2743
RA_OF_ASC_NODE = 43.3640
ARG_OF_PERICENTER = 357.0810
MEAN_ANOMALY   = 2.5395

EPHEMERIS_TYPE = 0
CLASSIFICATION_TYPE = U
NORAD_CAT_ID   = 270160
ELEMENT_SET_NO = 999
REV_AT_EPOCH   = 26202
BSTAR          = .40792984E-2
MEAN_MOTION_DOT = .1298E-4
MEAN_MOTION_DDOT = 0

CCSDS_OMM_VERS = 2.0
CREATION_DATE  = 
ORIGINATOR     = 

OBJECT_NAME    = UNKNOWN
OBJECT_ID      = 
CENTER_NAME    = EARTH
REF_FRAME      = TEME
TIME_SYSTEM    = UTC
MEAN_ELEMENT_THEORY = SGP/SGP4

EPOCH          = 2025-10-28T05:30:02.626848
MEAN_MOTION    = 12.76455421
ECCENTRICITY   = .00573564
INCLINATION    = 101.0950
RA_OF_ASC_NODE = 285.0995
ARG_OF_PERICENTER = 1.3562
MEAN_ANOMALY   = 358.7673

EPHEMERIS_TYPE = 0
CLASSIFICATION_TYPE = U
NORAD_CAT_ID   = 270161
ELEMENT_SET_NO = 999
REV_AT_EPOCH   = 27537
BSTAR          = .28098612E-2
MEAN_MOTION_DOT = .569E-5
MEAN_MOTION_DDOT = 0

CCSDS_OMM_VERS = 2.0
CREATION_DATE  = 
ORIGINATOR     = 

OBJECT_NAME    = UNKNOWN
OBJECT_ID      = 
CENTER_NAME    = EARTH
REF_FRAME      = TEME
TIME_SYSTEM    = UTC
MEAN_ELEMENT_THEORY = SGP/SGP4

EPOCH          = 2025-10-05T09:41:44.068128
MEAN_MOTION    = 12.64418260
ECCENTRICITY   = .09273191
INCLINATION    = 28.8348
RA_OF_ASC_NODE = 172.7277
ARG_OF_PERICENTER = 134.2608
MEAN_ANOMALY   = 233.7893

EPHEMERIS_TYPE = 0
CLASSIFICATION_TYPE = U
NORAD_CAT_ID   = 270162
ELEMENT_SET_NO = 999
REV_AT_EPOCH   = 26959
BSTAR          = .119862E-2
MEAN_MOTION_DOT = .1323E-4
MEAN_MOTION_DDOT = 0

CCSDS_OMM_VERS = 2.0
CREATION_DATE  = 
ORIGINATOR     = 

OBJECT_NAME    = UNKNOWN
OBJECT_ID      = 
CENTER_NAME    = EARTH
REF_FRAME      = TEME
TIME_SYSTEM    = UTC
MEAN_ELEMENT_THEORY = SGP/SGP4

EPOCH          = 2025-10-29T14:47:58.917696
MEAN_MOTION    = 12.99934607
ECCENTRICITY   = .0028924
INCLINATION    = 90.2451
RA_OF_ASC_NODE = 6.1135
ARG_OF_PERICENTER = 157.0539
MEAN_ANOMALY   = 203.1882

EPHEMERIS_TYPE = 0
CLASSIFICATION_TYPE = U
NORAD_CAT_ID   = 270164
ELEMENT_SET_NO = 999
REV_AT_EPOCH   = 28002
BSTAR          = .17426795E-2
MEAN_MOTION_DOT = .532E-5
MEAN_MOTION_DDOT = 0

CCSDS_OMM_VERS = 2.0
CREATION_DATE  = 
ORIGINATOR     = 

OBJECT_NAME    = UNKNOWN
OBJECT_ID      = 
CENTER_NAME    = EARTH
REF_FRAME      = TEME
TIME_SYSTEM    = UTC
MEAN_ELEMENT_THEORY = SGP/SGP4

EPOCH          = 2025-10-18T22:43:43.868064
MEAN_MOTION    = 12.95628340
ECCENTRICITY   = .00448582
INCLINATION    = 90.2432
RA_OF_ASC_NODE = 6.8674
ARG_OF_PERICENTER = 111.2117
MEAN_ANOMALY   = 249.3804

EPHEMERIS_TYPE = 0
CLASSIFICATION_TYPE = U
NORAD_CAT_ID   = 270165
ELEMENT_SET_NO = 999
REV_AT_EPOCH   = 27722
BSTAR          = .1388918E-2
MEAN_MOTION_DOT = .402E-5
MEAN_MOTION_DDOT = 0

CCSDS_OMM_VERS = 2.0
CREATION_DATE  = 
ORIGINATOR     = 

OBJECT_NAME    = UNKNOWN
OBJECT_ID      = 
CENTER_NAME    = EARTH
REF_FRAME      = TEME
TIME_SYSTEM    = UTC
MEAN_ELEMENT_THEORY = SGP/SGP4

EPOCH          = 2025-10-29T07:46:33.555072
MEAN_MOTION    = 14.31151483
ECCENTRICITY   = .0005441
INCLINATION    = 98.7543
RA_OF_ASC_NODE = 317.7532
ARG_OF_PERICENTER = 26.2299
MEAN_ANOMALY   = 333.9158

EPHEMERIS_TYPE = 0
CLASSIFICATION_TYPE = U
NORAD_CAT_ID   = 270166
ELEMENT_SET_NO = 999
REV_AT_EPOCH   = 30877
BSTAR          = .19444352E-3
MEAN_MOTION_DOT = .468E-5
MEAN_MOTION_DDOT = 0

CCSDS_OMM_VERS = 2.0
CREATION_DATE  = 
ORIGINATOR     = 

OBJECT_NAME    = UNKNOWN
OBJECT_ID      = 
CENTER_NAME    = EARTH
REF_FRAME      = TEME
TIME_SYSTEM    = UTC
MEAN_ELEMENT_THEORY = SGP/SGP4

EPOCH          = 2025-10-16T11:25:05.498976
MEAN_MOTION    = 11.48034508
ECCENTRICITY   = .07064623
INCLINATION    = 65.7352
RA_OF_ASC_NODE = 210.5871
ARG_OF_PERICENTER = 212.5948
MEAN_ANOMALY   = 142.9465

EPHEMERIS_TYPE = 0
CLASSIFICATION_TYPE = U
NORAD_CAT_ID   = 270167
ELEMENT_SET_NO = 999
REV_AT_EPOCH   = 24652
BSTAR          = -.22686205E-2
MEAN_MOTION_DOT = -.221E-5
MEAN_MOTION_DDOT = 0

CCSDS_OMM_VERS = 2.0
CREATION_DATE  = 
ORIGINATOR     = 

OBJECT_NAME    = UNKNOWN
OBJECT_ID      = 
CENTER_NAME    = EARTH
REF_FRAME      = TEME
TIME_SYSTEM    = UTC
MEAN_ELEMENT_THEORY = SGP/SGP4

EPOCH          = 2025-10-25T21:29:16.842912
MEAN_MOTION    = 14.37925078
ECCENTRICITY   = .00654064
INCLINATION    = 86.2002
RA_OF_ASC_NODE = 3.0297
ARG_OF_PERICENTER = 50.5274
MEAN_ANOMALY   = 310.1684

EPHEMERIS_TYPE = 0
CLASSIFICATION_TYPE = U
NORAD_CAT_ID   = 270168
ELEMENT_SET_NO = 999
REV_AT_EPOCH   = 30819
BSTAR          = .14049019E-2
MEAN_MOTION_DOT = .4367E-4
MEAN_MOTION_DDOT = 0

CCSDS_OMM_VERS = 2.0
CREATION_DATE  = 
ORIGINATOR     = 

OBJECT_NAME    = UNKNOWN
OBJECT_ID      = 
CENTER_NAME    = EARTH
REF_FRAME      = TEME
TIME_SYSTEM    = UTC
MEAN_ELEMENT_THEORY = SGP/SGP4

EPOCH          = 2025-10-28T02:57:38.470752
MEAN_MOTION    = 14.41235354
ECCENTRICITY   = .00136421
INCLINATION    = 65.0082
RA_OF_ASC_NODE = 89.7097
ARG_OF_PERICENTER = 275.0008
MEAN_ANOMALY   = 84.9524

EPHEMERIS_TYPE = 0
CLASSIFICATION_TYPE = U
NORAD_CAT_ID   = 270170
ELEMENT_SET_NO = 999
REV_AT_EPOCH   = 31027
BSTAR          = .72188557E-3
MEAN_MOTION_DOT = .2237E-4
MEAN_MOTION_DDOT = 0

CCSDS_OMM_VERS = 2.0
CREATION_DATE  = 
ORIGINATOR     = 

OBJECT_NAME    = UNKNOWN
OBJECT_ID      = 
CENTER_NAME    = EARTH
REF_FRAME      = TEME
TIME_SYSTEM    = UTC
MEAN_ELEMENT_THEORY = SGP/SGP4

EPOCH          = 2025-10-30T14:24:27.652320
MEAN_MOTION    = 14.45211112
ECCENTRICITY   = .00232336
INCLINATION    = 86.3732
RA_OF_ASC_NODE = 60.1075
ARG_OF_PERICENTER = 301.0050
MEAN_ANOMALY   = 58.8870

EPHEMERIS_TYPE = 0
CLASSIFICATION_TYPE = U
NORAD_CAT_ID   = 270172
ELEMENT_SET_NO = 999
REV_AT_EPOCH   = 31112
BSTAR          = .74008332E-3
MEAN_MOTION_DOT = .262E-4
MEAN_MOTION_DDOT = 0

CCSDS_OMM_VERS = 2.0
CREATION_DATE  = 
ORIGINATOR     = 

OBJECT_NAME    = UNKNOWN
OBJECT_ID      = 
CENTER_NAME    = EARTH
REF_FRAME      = TEME
TIME_SYSTEM    = UTC
MEAN_ELEMENT_THEORY = SGP/SGP4

EPOCH          = 2025-11-01T09:34:09.037344
MEAN_MOTION    = 14.84510450
ECCENTRICITY   = .00019944
INCLINATION    = 86.6018
RA_OF_ASC_NODE = 83.6629
ARG_OF_PERICENTER = 116.9919
MEAN_ANOMALY   = 243.1508

EPHEMERIS_TYPE = 0
CLASSIFICATION_TYPE = U
NORAD_CAT_ID   = 270173
ELEMENT_SET_NO = 999
REV_AT_EPOCH   = 31792
BSTAR          = .63027681E-3
MEAN_MOTION_DOT = .5335E-4
MEAN_MOTION_DDOT = 0

CCSDS_OMM_VERS = 2.0
CREATION_DATE  = 
ORIGINATOR     = 

OBJECT_NAME    = UNKNOWN
OBJECT_ID      = 
CENTER_NAME    = EARTH
REF_FRAME      = TEME
TIME_SYSTEM    = UTC
MEAN_ELEMENT_THEORY = SGP/SGP4

EPOCH          = 2025-10-06T03:01:23.604960
MEAN_MOTION    = 11.49737847
ECCENTRICITY   = .0947097
INCLINATION    = 63.3944
RA_OF_ASC_NODE = 215.5707
ARG_OF_PERICENTER = 317.1193
MEAN_ANOMALY   = 35.9505

EPHEMERIS_TYPE = 0
CLASSIFICATION_TYPE = U
NORAD_CAT_ID   = 270174
ELEMENT_SET_NO = 999
REV_AT_EPOCH   = 24617
BSTAR          = .47181823E-3
MEAN_MOTION_DOT = .9E-7
MEAN_MOTION_DDOT = 0

